[{"OBJECT_NAME":"STARLINK-32093","OBJECT_ID":"2024-086V","EPOCH":"2026-03-09T09:04:01.889760","MEAN_MOTION":15.27575856,"ECCENTRICITY":0.00011966,"INCLINATION":43.0024,"RA_OF_ASC_NODE":61.7241,"ARG_OF_PERICENTER":261.46,"MEAN_ANOMALY":98.6116,"EPHEMERIS_TYPE":0,"CLASSIFICATION_TYPE":"U","NORAD_CAT_ID":59701,"ELEMENT_SET_NO":999,"REV_AT_EPOCH":10406,"BSTAR":-2.818447e-6,"MEAN_MOTION_DOT":-3.4e-6,"MEAN_MOTION_DDOT":0},{"OBJECT_NAME":"OBJECT BC","OBJECT_ID":"2025-313BC","EPOCH":"2026-03-09T04:33:08.504064","MEAN_MOTION":15.29126358,"ECCENTRICITY":0.00084789,"INCLINATION":97.3985,"RA_OF_ASC_NODE":144.811,"ARG_OF_PERICENTER":328.9209,"MEAN_ANOMALY":31.1528,"EPHEMERIS_TYPE":0,"CLASSIFICATION_TYPE":"U","NORAD_CAT_ID":67298,"ELEMENT_SET_NO":999,"REV_AT_EPOCH":789,"BSTAR":0.0026410397,"MEAN_MOTION_DOT":0.00075331,"MEAN_MOTION_DDOT":0}]
