STARLINK-32093          
1 59701U 24086V   26068.37779965 -.00000340  00000+0 -28184-5 0  9993
2 59701  43.0024  61.7241 0001196 261.4600  98.6116 15.27575856104067
2025-313BC              
1 67298U 25313BC  26068.18968176  .00075331  00000+0  26410-2 0  9997
2 67298  97.3985 144.8110 0008478 328.9209  31.1528 15.29126358  7890
